{"type": "FeatureCollection", "features": [{"type": "Feature", "properties": {"norad_id": 24876, "name": "GPS BIIR-2  (PRN 13)", "group": "gnss", "lat": -12.317054618971671, "lon": -65.88529849931005, "alt_km": 20373.773611607896, "timestamp": "2025-12-18T23:35:49.300060+00:00", "meta": {"OBJECT_NAME": "GPS BIIR-2  (PRN 13)", "OBJECT_ID": "1997-035A", "EPOCH": "2025-12-17T17:14:35.709504", "MEAN_MOTION": 2.00563699, "ECCENTRICITY": 0.00967771, "INCLINATION": 55.8976, "RA_OF_ASC_NODE": 105.6742, "ARG_OF_PERICENTER": 56.9662, "MEAN_ANOMALY": 303.9295, "EPHEMERIS_TYPE": 0, "CLASSIFICATION_TYPE": "U", "NORAD_CAT_ID": 24876, "ELEMENT_SET_NO": 999, "REV_AT_EPOCH": 20831, "BSTAR": 0, "MEAN_MOTION_DOT": -2.3e-07, "MEAN_MOTION_DDOT": 0}, "tle": {"line1": "1 24876U 97035A   25351.71846886 -.00000023  00000+0  00000+0 0  9999", "line2": "2 24876  55.8976 105.6742 0096777  56.9662 303.9295  2.00563699208319"}}, "geometry": {"type": "Point", "coordinates": [-65.88529849931005, -12.317054618971671]}}, {"type": "Feature", "properties": {"norad_id": 26360, "name": "GPS BIIR-4  (PRN 20)", "group": "gnss", "lat": -51.838774473036295, "lon": -36.220038782429576, "alt_km": 20112.703320596585, "timestamp": "2025-12-18T23:35:49.300116+00:00", "meta": {"OBJECT_NAME": "GPS BIIR-4  (PRN 20)", "OBJECT_ID": "2000-025A", "EPOCH": "2025-12-18T04:28:10.585632", "MEAN_MOTION": 2.00567362, "ECCENTRICITY": 0.0038886, "INCLINATION": 55.0484, "RA_OF_ASC_NODE": 26.6175, "ARG_OF_PERICENTER": 242.5017, "MEAN_ANOMALY": 188.1576, "EPHEMERIS_TYPE": 0, "CLASSIFICATION_TYPE": "U", "NORAD_CAT_ID": 26360, "ELEMENT_SET_NO": 999, "REV_AT_EPOCH": 18764, "BSTAR": 0, "MEAN_MOTION_DOT": -7.5e-07, "MEAN_MOTION_DDOT": 0}, "tle": {"line1": "1 26360U 00025A   25352.18623363 -.00000075  00000+0  00000+0 0  9994", "line2": "2 26360  55.0484  26.6175 0038886 242.5017 188.1576  2.00567362187649"}}, "geometry": {"type": "Point", "coordinates": [-36.220038782429576, -51.838774473036295]}}, {"type": "Feature", "properties": {"norad_id": 26407, "name": "GPS BIIR-5  (PRN 22)", "group": "gnss", "lat": 41.678767996874946, "lon": 3.5751262758708466, "alt_km": 20509.378054366494, "timestamp": "2025-12-18T23:35:49.300135+00:00", "meta": {"OBJECT_NAME": "GPS BIIR-5  (PRN 22)", "OBJECT_ID": "2000-040A", "EPOCH": "2025-12-18T13:13:56.353152", "MEAN_MOTION": 2.00568108, "ECCENTRICITY": 0.01256972, "INCLINATION": 54.8895, "RA_OF_ASC_NODE": 222.3379, "ARG_OF_PERICENTER": 301.9074, "MEAN_ANOMALY": 232.0278, "EPHEMERIS_TYPE": 0, "CLASSIFICATION_TYPE": "U", "NORAD_CAT_ID": 26407, "ELEMENT_SET_NO": 999, "REV_AT_EPOCH": 18632, "BSTAR": 0, "MEAN_MOTION_DOT": 7.5e-07, "MEAN_MOTION_DDOT": 0}, "tle": {"line1": "1 26407U 00040A   25352.55134668  .00000075  00000+0  00000+0 0  9998", "line2": "2 26407  54.8895 222.3379 0125697 301.9074 232.0278  2.00568108186326"}}, "geometry": {"type": "Point", "coordinates": [3.5751262758708466, 41.678767996874946]}}, {"type": "Feature", "properties": {"norad_id": 27663, "name": "GPS BIIR-8  (PRN 16)", "group": "gnss", "lat": -53.88698011544271, "lon": 116.43467271999161, "alt_km": 20529.59489667879, "timestamp": "2025-12-18T23:35:49.300150+00:00", "meta": {"OBJECT_NAME": "GPS BIIR-8  (PRN 16)", "OBJECT_ID": "2003-005A", "EPOCH": "2025-12-18T15:15:29.035872", "MEAN_MOTION": 2.00570647, "ECCENTRICITY": 0.0147663, "INCLINATION": 54.922, "RA_OF_ASC_NODE": 222.1438, "ARG_OF_PERICENTER": 51.8804, "MEAN_ANOMALY": 318.9428, "EPHEMERIS_TYPE": 0, "CLASSIFICATION_TYPE": "U", "NORAD_CAT_ID": 27663, "ELEMENT_SET_NO": 999, "REV_AT_EPOCH": 16769, "BSTAR": 0, "MEAN_MOTION_DOT": 7.5e-07, "MEAN_MOTION_DDOT": 0}, "tle": {"line1": "1 27663U 03005A   25352.63575273  .00000075  00000+0  00000+0 0  9997", "line2": "2 27663  54.9220 222.1438 0147663  51.8804 318.9428  2.00570647167698"}}, "geometry": {"type": "Point", "coordinates": [116.43467271999161, -53.88698011544271]}}, {"type": "Feature", "properties": {"norad_id": 28190, "name": "GPS BIIR-11 (PRN 19)", "group": "gnss", "lat": 44.61440451530238, "lon": -33.356447688644685, "alt_km": 20266.521399814013, "timestamp": "2025-12-18T23:35:49.300165+00:00", "meta": {"OBJECT_NAME": "GPS BIIR-11 (PRN 19)", "OBJECT_ID": "2004-009A", "EPOCH": "2025-12-18T01:19:43.105728", "MEAN_MOTION": 2.00560667, "ECCENTRICITY": 0.01084092, "INCLINATION": 54.9808, "RA_OF_ASC_NODE": 283.0048, "ARG_OF_PERICENTER": 167.7197, "MEAN_ANOMALY": 302.5438, "EPHEMERIS_TYPE": 0, "CLASSIFICATION_TYPE": "U", "NORAD_CAT_ID": 28190, "ELEMENT_SET_NO": 999, "REV_AT_EPOCH": 15931, "BSTAR": 0, "MEAN_MOTION_DOT": -5.1e-07, "MEAN_MOTION_DDOT": 0}, "tle": {"line1": "1 28190U 04009A   25352.05536002 -.00000051  00000+0  00000+0 0  9996", "line2": "2 28190  54.9808 283.0048 0108409 167.7197 302.5438  2.00560667159317"}}, "geometry": {"type": "Point", "coordinates": [-33.356447688644685, 44.61440451530238]}}, {"type": "Feature", "properties": {"norad_id": 28474, "name": "GPS BIIR-13 (PRN 02)", "group": "gnss", "lat": 44.85295665269338, "lon": 108.44594420857445, "alt_km": 20625.570044521603, "timestamp": "2025-12-18T23:35:49.300178+00:00", "meta": {"OBJECT_NAME": "GPS BIIR-13 (PRN 02)", "OBJECT_ID": "2004-045A", "EPOCH": "2025-12-18T14:06:14.745888", "MEAN_MOTION": 2.00569895, "ECCENTRICITY": 0.01708674, "INCLINATION": 55.2378, "RA_OF_ASC_NODE": 332.1705, "ARG_OF_PERICENTER": 309.5078, "MEAN_ANOMALY": 245.3843, "EPHEMERIS_TYPE": 0, "CLASSIFICATION_TYPE": "U", "NORAD_CAT_ID": 28474, "ELEMENT_SET_NO": 999, "REV_AT_EPOCH": 15480, "BSTAR": 0, "MEAN_MOTION_DOT": -8.5e-07, "MEAN_MOTION_DDOT": 0}, "tle": {"line1": "1 28474U 04045A   25352.58767067 -.00000085  00000+0  00000+0 0  9993", "line2": "2 28474  55.2378 332.1705 0170867 309.5078 245.3843  2.00569895154800"}}, "geometry": {"type": "Point", "coordinates": [108.44594420857445, 44.85295665269338]}}, {"type": "Feature", "properties": {"norad_id": 28874, "name": "GPS BIIRM-1 (PRN 17)", "group": "gnss", "lat": 53.92444694628216, "lon": -5.962875882392425, "alt_km": 20464.967173582183, "timestamp": "2025-12-18T23:35:49.300191+00:00", "meta": {"OBJECT_NAME": "GPS BIIRM-1 (PRN 17)", "OBJECT_ID": "2005-038A", "EPOCH": "2025-12-18T14:46:52.316256", "MEAN_MOTION": 2.00578112, "ECCENTRICITY": 0.01314599, "INCLINATION": 55.0267, "RA_OF_ASC_NODE": 280.4644, "ARG_OF_PERICENTER": 293.6802, "MEAN_ANOMALY": 240.6678, "EPHEMERIS_TYPE": 0, "CLASSIFICATION_TYPE": "U", "NORAD_CAT_ID": 28874, "ELEMENT_SET_NO": 999, "REV_AT_EPOCH": 14821, "BSTAR": 0, "MEAN_MOTION_DOT": -4.2e-07, "MEAN_MOTION_DDOT": 0}, "tle": {"line1": "1 28874U 05038A   25352.61588329 -.00000042  00000+0  00000+0 0  9999", "line2": "2 28874  55.0267 280.4644 0131459 293.6802 240.6678  2.00578112148212"}}, "geometry": {"type": "Point", "coordinates": [-5.962875882392425, 53.92444694628216]}}, {"type": "Feature", "properties": {"norad_id": 28899, "name": "INMARSAT 4-F2 (SOUTHPAN/PRN 122)", "group": "gnss", "lat": -0.15021871328383998, "lon": -134.7396940902293, "alt_km": 35778.836238049305, "timestamp": "2025-12-18T23:35:49.300206+00:00", "meta": {"OBJECT_NAME": "INMARSAT 4-F2 (SOUTHPAN/PRN 122)", "OBJECT_ID": "2005-044A", "EPOCH": "2025-12-18T08:16:08.364000", "MEAN_MOTION": 1.00270978, "ECCENTRICITY": 0.00024903, "INCLINATION": 4.8594, "RA_OF_ASC_NODE": 43.7025, "ARG_OF_PERICENTER": 225.8666, "MEAN_ANOMALY": 85.1745, "EPHEMERIS_TYPE": 0, "CLASSIFICATION_TYPE": "U", "NORAD_CAT_ID": 28899, "ELEMENT_SET_NO": 999, "REV_AT_EPOCH": 7370, "BSTAR": 0, "MEAN_MOTION_DOT": -2.4e-06, "MEAN_MOTION_DDOT": 0}, "tle": {"line1": "1 28899U 05044A   25352.34454125 -.00000240  00000+0  00000+0 0  9999", "line2": "2 28899   4.8594  43.7025 0002490 225.8666  85.1745  1.00270978 73700"}}, "geometry": {"type": "Point", "coordinates": [-134.7396940902293, -0.15021871328383998]}}, {"type": "Feature", "properties": {"norad_id": 29486, "name": "GPS BIIRM-2 (PRN 31)", "group": "gnss", "lat": -15.36998812597626, "lon": 147.2457818489542, "alt_km": 20090.103902945022, "timestamp": "2025-12-18T23:35:49.300219+00:00", "meta": {"OBJECT_NAME": "GPS BIIRM-2 (PRN 31)", "OBJECT_ID": "2006-042A", "EPOCH": "2025-12-18T13:15:57.668256", "MEAN_MOTION": 2.00553965, "ECCENTRICITY": 0.01073199, "INCLINATION": 54.6948, "RA_OF_ASC_NODE": 158.5101, "ARG_OF_PERICENTER": 52.102, "MEAN_ANOMALY": 339.2959, "EPHEMERIS_TYPE": 0, "CLASSIFICATION_TYPE": "U", "NORAD_CAT_ID": 29486, "ELEMENT_SET_NO": 999, "REV_AT_EPOCH": 14077, "BSTAR": 0, "MEAN_MOTION_DOT": 7.3e-07, "MEAN_MOTION_DDOT": 0}, "tle": {"line1": "1 29486U 06042A   25352.55275079  .00000073  00000+0  00000+0 0  9996", "line2": "2 29486  54.6948 158.5101 0107319  52.1020 339.2959  2.00553965140773"}}, "geometry": {"type": "Point", "coordinates": [147.2457818489542, -15.36998812597626]}}, {"type": "Feature", "properties": {"norad_id": 29601, "name": "GPS BIIRM-3 (PRN 12)", "group": "gnss", "lat": 31.3620620153619, "lon": -113.53994892747204, "alt_km": 20020.30190622284, "timestamp": "2025-12-18T23:35:49.300231+00:00", "meta": {"OBJECT_NAME": "GPS BIIRM-3 (PRN 12)", "OBJECT_ID": "2006-052A", "EPOCH": "2025-12-17T22:21:49.009536", "MEAN_MOTION": 2.00574024, "ECCENTRICITY": 0.00876985, "INCLINATION": 54.9696, "RA_OF_ASC_NODE": 221.1922, "ARG_OF_PERICENTER": 87.4131, "MEAN_ANOMALY": 273.6858, "EPHEMERIS_TYPE": 0, "CLASSIFICATION_TYPE": "U", "NORAD_CAT_ID": 29601, "ELEMENT_SET_NO": 999, "REV_AT_EPOCH": 13977, "BSTAR": 0, "MEAN_MOTION_DOT": 7.5e-07, "MEAN_MOTION_DDOT": 0}, "tle": {"line1": "1 29601U 06052A   25351.93181724  .00000075  00000+0  00000+0 0  9992", "line2": "2 29601  54.9696 221.1922 0087698  87.4131 273.6858  2.00574024139770"}}, "geometry": {"type": "Point", "coordinates": [-113.53994892747204, 31.3620620153619]}}]}